ASTROCAST-0401          
1 55110U 23001DF  26068.71172895  .00009750  00000+0  37868-3 0  9995
2 55110  97.5547 160.5206 0008142 188.4231 171.6872 15.26258462176022
STARLINK-34057          
1 63814U 25092L   26068.33418944  .00028696  00000+0  10480-2 0  9993
2 63814  42.9942 174.2620 0000957 168.9023 191.1850 15.27586967 48560
